NORAD_CAT_ID,OBJECT_NAME,OBJECT_TYPE,EPOCH,MEAN_MOTION,ECCENTRICITY,INCLINATION,RA_OF_ASC_NODE,ARG_OF_PERICENTER,MEAN_ANOMALY,BSTAR,MEAN_MOTION_DOT,MEAN_MOTION_DDOT,TLE_LINE0,TLE_LINE1,TLE_LINE2,SEMIMAJOR_AXIS,PERIOD,APOGEE,PERIGEE,DECAYED
52123.0,STARLINK-3725,PAYLOAD,2023-03-14 14:05:23,15.08848888,0.0001503,53.214,287.27,101.6323,258.4838,0.0004916,7.546e-05,0.0,0 STARLINK-3725,1 52123U 22029AM  23073.58707290  .00007546  00000-0  49160-3 0  9996,2 52123  53.2140 287.2700 0001503 101.6323 258.4838 15.08848888 56211,6917.853,95.437,540.758,538.678,0.0
52123.0,STARLINK-3725,PAYLOAD,2023-03-14 23:37:41,15.0886066,0.0001809,53.2132,285.4864,91.6458,268.4741,0.0006749,0.00010475,0.0,0 STARLINK-3725,1 52123U 22029AM  23073.98450867  .00010475  00000-0  67490-3 0  9996,2 52123  53.2132 285.4864 0001809  91.6458 268.4741 15.08860660 56271,6917.817,95.436,540.934,538.431,0.0
52123.0,STARLINK-3725,PAYLOAD,2023-03-15 20:17:42,15.0885258,0.0001382,53.2136,281.6247,73.3843,286.7301,0.00028675,4.28e-05,0.0,0 STARLINK-3725,1 52123U 22029AM  23074.84562570  .00004280  00000-0  28675-3 0  9996,2 52123  53.2136 281.6247 0001382  73.3843 286.7301 15.08852580 56401,6917.842,95.437,540.663,538.751,0.0
52123.0,STARLINK-3725,PAYLOAD,2023-03-16 13:46:57,15.08827932,0.0001175,53.2129,278.3527,65.5597,294.5518,-0.00015234,-2.711e-05,0.0,0 STARLINK-3725,1 52123U 22029AM  23075.57427153 -.00002711  00000-0 -15234-3 0  9990,2 52123  53.2129 278.3527 0001175  65.5597 294.5518 15.08827932 56518,6917.917,95.438,540.595,538.969,0.0
52123.0,STARLINK-3725,PAYLOAD,2023-03-16 20:08:29,15.08827958,0.0001263,53.2139,277.1626,83.7337,276.3798,5.6526e-05,6.12e-06,0.0,0 STARLINK-3725,1 52123U 22029AM  23075.83923409  .00000612  00000-0  56526-4 0  9990,2 52123  53.2139 277.1626 0001263  83.7337 276.3798 15.08827958 56558,6917.917,95.438,540.656,538.908,0.0
52123.0,STARLINK-3725,PAYLOAD,2023-03-17 13:37:44,15.08835108,0.0001318,53.2138,273.8917,87.8233,272.291,0.00039028,5.928e-05,0.0,0 STARLINK-3725,1 52123U 22029AM  23076.56787898  .00005928  00000-0  39028-3 0  9993,2 52123  53.2138 273.8917 0001318  87.8233 272.2910 15.08835108 56663,6917.895,95.438,540.672,538.849,0.0
52123.0,STARLINK-3725,PAYLOAD,2023-03-17 19:59:17,15.08844131,0.0001305,53.2132,272.7025,88.4837,271.6304,0.00058585,9.049e-05,0.0,0 STARLINK-3725,1 52123U 22029AM  23076.83283682  .00009049  00000-0  58585-3 0  9992,2 52123  53.2132 272.7025 0001305  88.4837 271.6304 15.08844131 56709,6917.868,95.437,540.636,538.83,0.0
52123.0,STARLINK-3725,PAYLOAD,2023-03-18 19:50:03,15.08848437,0.0001247,53.2135,268.2424,96.5074,263.606,0.00028299,4.22e-05,0.0,0 STARLINK-3725,1 52123U 22029AM  23077.82643217  .00004220  00000-0  28299-3 0  9991,2 52123  53.2135 268.2424 0001247  96.5074 263.6060 15.08848437 56852,6917.855,95.437,540.582,538.857,0.0
52123.0,STARLINK-3725,PAYLOAD,2023-03-18 21:25:26,15.08849363,0.000126,53.2146,267.9458,95.9606,264.1529,0.00027581,4.105e-05,0.0,0 STARLINK-3725,1 52123U 22029AM  23077.89267150  .00004105  00000-0  27581-3 0  9991,2 52123  53.2146 267.9458 0001260  95.9606 264.1529 15.08849363 56862,6917.852,95.437,540.588,538.845,0.0
52123.0,STARLINK-3725,PAYLOAD,2023-03-19 13:19:18,15.08837661,0.0001221,53.2145,264.9716,86.5106,273.6026,-7.8629e-05,-1.539e-05,0.0,0 STARLINK-3725,1 52123U 22029AM  23078.55507466 -.00001539  00000-0 -78629-4 0  9992,2 52123  53.2145 264.9716 0001221  86.5106 273.6026 15.08837661 56969,6917.888,95.438,540.597,538.908,0.0
52123.0,STARLINK-3725,PAYLOAD,2023-03-19 21:16:14,15.08841626,0.0001213,53.2143,263.4844,84.1912,275.9218,2.4937e-05,1.09e-06,0.0,0 STARLINK-3725,1 52123U 22029AM  23078.88627450  .00000109  00000-0  24937-4 0  9997,2 52123  53.2143 263.4844 0001213  84.1912 275.9218 15.08841626 57014,6917.875,95.437,540.58,538.901,0.0
52123.0,STARLINK-3725,PAYLOAD,2023-03-20 11:34:42,15.08839121,0.0001231,53.2152,260.8074,86.6536,273.4597,4.5351e-05,4.34e-06,0.0,0 STARLINK-3725,1 52123U 22029AM  23079.48243689  .00000434  00000-0  45351-4 0  9996,2 52123  53.2152 260.8074 0001231  86.6536 273.4597 15.08839121 57109,6917.883,95.438,540.6,538.896,0.0
52123.0,STARLINK-3725,PAYLOAD,2023-03-20 17:56:14,15.08842783,0.0001169,53.2142,259.6172,80.8393,279.2731,6.4483e-05,7.39e-06,0.0,0 STARLINK-3725,1 52123U 22029AM  23079.74739546  .00000739  00000-0  64483-4 0  9992,2 52123  53.2142 259.6172 0001169  80.8393 279.2731 15.08842783 57146,6917.872,95.437,540.546,538.928,0.0
52123.0,STARLINK-3725,PAYLOAD,2023-03-21 05:03:56,15.08843981,0.0001197,53.2147,257.5363,81.2079,278.9049,0.00020307,2.946e-05,0.0,0 STARLINK-3725,1 52123U 22029AM  23080.21107551  .00002946  00000-0  20307-3 0  9999,2 52123  53.2147 257.5363 0001197  81.2079 278.9049 15.08843981 57214,6917.868,95.437,540.561,538.905,0.0
52123.0,STARLINK-3725,PAYLOAD,2023-03-21 11:25:29,15.08843565,0.0001269,53.2139,256.3468,77.9878,282.1257,0.00023983,3.531e-05,0.0,0 STARLINK-3725,1 52123U 22029AM  23080.47603639  .00003531  00000-0  23983-3 0  9999,2 52123  53.2139 256.3468 0001269  77.9878 282.1257 15.08843565 57257,6917.869,95.437,540.612,538.857,0.0
52123.0,STARLINK-3725,PAYLOAD,2023-03-22 17:37:49,15.08841436,0.0001172,53.2143,250.6937,98.8015,261.311,3.3651e-05,2.48e-06,0.0,0 STARLINK-3725,1 52123U 22029AM  23081.73459564  .00000248  00000-0  33651-4 0  9991,2 52123  53.2143 250.6937 0001172  98.8015 261.3110 15.08841436 57441,6917.876,95.437,540.552,538.93,0.0
52123.0,STARLINK-3725,PAYLOAD,2023-03-23 14:17:49,15.08841426,0.0001188,53.2144,246.8297,93.2824,266.8304,8.0881e-05,1e-05,0.0,0 STARLINK-3725,1 52123U 22029AM  23082.59571722  .00001000  00000-0  80881-4 0  9991,2 52123  53.2144 246.8297 0001188  93.2824 266.8304 15.08841426 57570,6917.876,95.437,540.563,538.919,0.0
52123.0,STARLINK-3725,PAYLOAD,2023-03-23 17:28:35,15.08848931,0.0001293,53.2136,246.2368,86.864,273.25,0.00022418,3.283e-05,0.0,0 STARLINK-3725,1 52123U 22029AM  23082.72819344  .00003283  00000-0  22418-3 0  9997,2 52123  53.2136 246.2368 0001293  86.8640 273.2500 15.08848931 57595,6917.853,95.437,540.613,538.824,0.0
52123.0,STARLINK-3725,PAYLOAD,2023-03-24 10:57:49,15.08855812,8.25e-05,53.2146,242.9642,97.2923,262.8163,0.00042487,6.483e-05,0.0,0 STARLINK-3725,1 52123U 22029AM  23083.45682870  .00006483  00000-0  42487-3 0  9993,2 52123  53.2146 242.9642 0000825  97.2923 262.8163 15.08855812 57702,6917.832,95.437,540.268,539.126,0.0
52123.0,STARLINK-3725,PAYLOAD,2023-03-24 14:08:36,15.0885164,0.0001127,53.2143,242.3688,92.0265,268.0857,0.00030763,4.613e-05,0.0,0 STARLINK-3725,1 52123U 22029AM  23083.58931084  .00004613  00000-0  30763-3 0  9998,2 52123  53.2143 242.3688 0001127  92.0265 268.0857 15.08851640 57726,6917.845,95.437,540.489,538.93,0.0
52123.0,STARLINK-3725,PAYLOAD,2023-03-24 17:19:22,15.08858114,7.76e-05,53.2152,241.7769,86.3352,273.7728,0.00045646,6.988e-05,0.0,0 STARLINK-3725,1 52123U 22029AM  23083.72178681  .00006988  00000-0  45646-3 0  9993,2 52123  53.2152 241.7769 0000776  86.3352 273.7728 15.08858114 57746,6917.825,95.436,540.227,539.153,0.0
52123.0,STARLINK-3725,PAYLOAD,2023-03-25 02:51:41,15.08840441,0.0001221,53.2153,239.9909,84.3062,275.8069,4.183e-06,-2.21e-06,0.0,0 STARLINK-3725,1 52123U 22029AM  23084.11923330 -.00000221  00000-0  41830-5 0  9994,2 52123  53.2153 239.9909 0001221  84.3062 275.8069 15.08840441 57806,6917.879,95.438,540.589,538.899,0.0
52123.0,STARLINK-3725,PAYLOAD,2023-03-25 10:48:39,15.08801043,0.0001314,53.2167,238.5045,75.1349,284.9788,-0.00063961,-0.00010442,0.0,0 STARLINK-3725,1 52123U 22029AM  23084.45045226 -.00010442  00000-0 -63961-3 0  9994,2 52123  53.2167 238.5045 0001314  75.1349 284.9788 15.08801043 57855,6917.999,95.44,540.773,538.955,0.0
52123.0,STARLINK-3725,PAYLOAD,2023-03-25 17:10:12,15.08803311,0.000115,53.2151,237.3136,66.7512,293.3601,-0.00048643,-8.013e-05,0.0,0 STARLINK-3725,1 52123U 22029AM  23084.71541791 -.00008013  00000-0 -48643-3 0  9992,2 52123  53.2151 237.3136 0001150  66.7512 293.3601 15.08803311 57894,6917.993,95.44,540.653,539.062,0.0
52123.0,STARLINK-3725,PAYLOAD,2023-03-26 02:42:30,15.08818526,0.0001102,53.2157,235.5309,72.5873,287.5239,-0.00010514,-1.96e-05,0.0,0 STARLINK-3725,1 52123U 22029AM  23085.11285761 -.00001960  00000-0 -10514-3 0  9999,2 52123  53.2157 235.5309 0001102  72.5873 287.5239 15.08818526 57957,6917.946,95.439,540.573,539.049,0.0
52123.0,STARLINK-3725,PAYLOAD,2023-03-26 10:39:26,15.0884286,0.0001255,53.2146,234.0429,51.3993,308.7111,0.00035764,5.409e-05,0.0,0 STARLINK-3725,1 52123U 22029AM  23085.44405130  .00005409  00000-0  35764-3 0  9993,2 52123  53.2146 234.0429 0001255  51.3993 308.7111 15.08842860 58009,6917.872,95.437,540.605,538.868,0.0
52123.0,STARLINK-3725,PAYLOAD,2023-03-26 17:00:58,15.08851957,0.0001357,53.2158,232.8552,66.0777,294.0357,0.00055279,8.523e-05,0.0,0 STARLINK-3725,1 52123U 22029AM  23085.70900948  .00008523  00000-0  55279-3 0  9992,2 52123  53.2158 232.8552 0001357  66.0777 294.0357 15.08851957 58041,6917.844,95.437,540.648,538.77,0.0
52123.0,STARLINK-3725,PAYLOAD,2023-03-27 10:30:12,15.08844564,9e-05,53.2164,229.5852,52.5434,307.564,0.00018028,2.583e-05,0.0,0 STARLINK-3725,1 52123U 22029AM  23086.43764775  .00002583  00000-0  18028-3 0  9990,2 52123  53.2164 229.5852 0000900  52.5434 307.5640 15.08844564 58150,6917.866,95.437,540.354,539.109,0.0
52123.0,STARLINK-3725,PAYLOAD,2023-03-27 13:40:59,15.0884042,0.0001605,53.2169,228.9903,69.2196,290.8968,0.00040611,6.181e-05,0.0,0 STARLINK-3725,1 52123U 22029AM  23086.57013279  .00006181  00000-0  40611-3 0  9992,2 52123  53.2169 228.9903 0001605  69.2196 290.8968 15.08840420 58174,6917.879,95.438,540.854,538.634,0.0
52123.0,STARLINK-3725,PAYLOAD,2023-03-27 18:27:08,15.08846787,0.0001647,53.217,228.0965,62.256,297.8599,0.00050624,7.779e-05,0.0,0 STARLINK-3725,1 52123U 22029AM  23086.76884928  .00007779  00000-0  50624-3 0  9999,2 52123  53.2170 228.0965 0001647  62.2560 297.8599 15.08846787 58202,6917.86,95.437,540.864,538.585,0.0
